{"type": "FeatureCollection", "features": [ {"type": "Feature", "properties": {"norad_id": 37834, "name": "INTELSAT 18 (IS-18)", "group": "intelsat", "lat": 0.03272534352357853, "lon": 41.32469968557808, "alt_km": 35789.83561284515, "timestamp": "2025-12-17T09:00:16.812543+00:00", "meta": {"OBJECT_NAME": "INTELSAT 18 (IS-18)", "OBJECT_ID": "2011-056A", "EPOCH": "2025-12-16T19:20:56.640768", "MEAN_MOTION": 1.00272259, "ECCENTRICITY": 0.00017557, "INCLINATION": 0.0138, "RA_OF_ASC_NODE": 303.0338, "ARG_OF_PERICENTER": 336.4862, "MEAN_ANOMALY": 276.4036, "EPHEMERIS_TYPE": 0, "CLASSIFICATION_TYPE": "U", "NORAD_CAT_ID": 37834, "ELEMENT_SET_NO": 999, "REV_AT_EPOCH": 5198, "BSTAR": 0, "MEAN_MOTION_DOT": 7.7e-07, "MEAN_MOTION_DDOT": 0}, "tle": {"line1": "1 37834U 11056A   25350.80621112  .00000077  00000+0  00000+0 0  9996", "line2": "2 37834   0.0138 303.0338 0001755 336.4862 276.4036  1.00272259 51988"}}, "geometry": {"type": "Point", "coordinates": [41.32469968557808, 0.03272534352357853]}}, {"type": "Feature", "properties": {"norad_id": 38098, "name": "INTELSAT 22 (IS-22)", "group": "intelsat", "lat": -0.049364958118693604, "lon": -66.59065452060284, "alt_km": 35778.54793525494, "timestamp": "2025-12-17T09:00:16.812555+00:00", "meta": {"OBJECT_NAME": "INTELSAT 22 (IS-22)", "OBJECT_ID": "2012-011A", "EPOCH": "2025-12-16T18:50:07.092384", "MEAN_MOTION": 1.00270584, "ECCENTRICITY": 0.00018733, "INCLINATION": 0.0405, "RA_OF_ASC_NODE": 53.3202, "ARG_OF_PERICENTER": 233.8092, "MEAN_ANOMALY": 153.1695, "EPHEMERIS_TYPE": 0, "CLASSIFICATION_TYPE": "U", "NORAD_CAT_ID": 38098, "ELEMENT_SET_NO": 999, "REV_AT_EPOCH": 535, "BSTAR": 0, "MEAN_MOTION_DOT": 0, "MEAN_MOTION_DDOT": 0}, "tle": {"line1": "1 38098U 12011A   25350.78480431  .00000000  00000+0  00000+0 0  9991", "line2": "2 38098   0.0405  53.3202 0001873 233.8092 153.1695  1.00270584  5350"}}, "geometry": {"type": "Point", "coordinates": [-66.59065452060284, -0.049364958118693604]}}, {"type": "Feature", "properties": {"norad_id": 38356, "name": "INTELSAT 19 (IS-19)", "group": "intelsat", "lat": 0.024624842865036137, "lon": 27.359191419686667, "alt_km": 35791.1805469261, "timestamp": "2025-12-17T09:00:16.812568+00:00", "meta": {"OBJECT_NAME": "INTELSAT 19 (IS-19)", "OBJECT_ID": "2012-030A", "EPOCH": "2025-12-16T15:51:30.465792", "MEAN_MOTION": 1.00272031, "ECCENTRICITY": 0.00031919, "INCLINATION": 0.0082, "RA_OF_ASC_NODE": 339.5774, "ARG_OF_PERICENTER": 295.3493, "MEAN_ANOMALY": 214.5126, "EPHEMERIS_TYPE": 0, "CLASSIFICATION_TYPE": "U", "NORAD_CAT_ID": 38356, "ELEMENT_SET_NO": 999, "REV_AT_EPOCH": 4862, "BSTAR": 0, "MEAN_MOTION_DOT": -3.2e-07, "MEAN_MOTION_DDOT": 0}, "tle": {"line1": "1 38356U 12030A   25350.66076928 -.00000032  00000+0  00000+0 0  9994", "line2": "2 38356   0.0082 339.5774 0003191 295.3493 214.5126  1.00272031 48621"}}, "geometry": {"type": "Point", "coordinates": [27.359191419686667, 0.024624842865036137]}}, {"type": "Feature", "properties": {"norad_id": 38740, "name": "INTELSAT 20 (IS-20)", "group": "intelsat", "lat": -0.01178650895942296, "lon": -70.14377334949516, "alt_km": 35788.21037843264, "timestamp": "2025-12-17T09:00:16.812580+00:00", "meta": {"OBJECT_NAME": "INTELSAT 20 (IS-20)", "OBJECT_ID": "2012-043A", "EPOCH": "2025-12-16T18:49:07.186944", "MEAN_MOTION": 1.00276533, "ECCENTRICITY": 0.00034136, "INCLINATION": 0.0049, "RA_OF_ASC_NODE": 57.598, "ARG_OF_PERICENTER": 128.0244, "MEAN_ANOMALY": 250.8251, "EPHEMERIS_TYPE": 0, "CLASSIFICATION_TYPE": "U", "NORAD_CAT_ID": 38740, "ELEMENT_SET_NO": 999, "REV_AT_EPOCH": 4891, "BSTAR": 0, "MEAN_MOTION_DOT": -1e-08, "MEAN_MOTION_DDOT": 0}, "tle": {"line1": "1 38740U 12043A   25350.78411096 -.00000001  00000+0  00000+0 0  9993", "line2": "2 38740   0.0049  57.5980 0003413 128.0244 250.8251  1.00276533 48915"}}, "geometry": {"type": "Point", "coordinates": [-70.14377334949516, -0.01178650895942296]}}, {"type": "Feature", "properties": {"norad_id": 38749, "name": "INTELSAT 21 (IS-21)", "group": "intelsat", "lat": 0.029836900958862447, "lon": 163.31867094620776, "alt_km": 35785.373337940895, "timestamp": "2025-12-17T09:00:16.812592+00:00", "meta": {"OBJECT_NAME": "INTELSAT 21 (IS-21)", "OBJECT_ID": "2012-045A", "EPOCH": "2025-12-16T09:39:21.104640", "MEAN_MOTION": 1.00275644, "ECCENTRICITY": 0.00014741, "INCLINATION": 0.0368, "RA_OF_ASC_NODE": 79.4307, "ARG_OF_PERICENTER": 176.2803, "MEAN_ANOMALY": 276.4325, "EPHEMERIS_TYPE": 0, "CLASSIFICATION_TYPE": "U", "NORAD_CAT_ID": 38749, "ELEMENT_SET_NO": 999, "REV_AT_EPOCH": 4869, "BSTAR": 0, "MEAN_MOTION_DOT": -2.61e-06, "MEAN_MOTION_DDOT": 0}, "tle": {"line1": "1 38749U 12045A   25350.40232760 -.00000261  00000+0  00000+0 0  9990", "line2": "2 38749   0.0368  79.4307 0001474 176.2803 276.4325  1.00275644 48698"}}, "geometry": {"type": "Point", "coordinates": [163.31867094620776, 0.029836900958862447]}}, {"type": "Feature", "properties": {"norad_id": 38867, "name": "INTELSAT 23 (IS-23)", "group": "intelsat", "lat": 0.029321707600186084, "lon": 168.34834752622075, "alt_km": 35783.91245135179, "timestamp": "2025-12-17T09:00:16.812604+00:00", "meta": {"OBJECT_NAME": "INTELSAT 23 (IS-23)", "OBJECT_ID": "2012-057A", "EPOCH": "2025-12-16T09:40:50.962368", "MEAN_MOTION": 1.00276027, "ECCENTRICITY": 4.125e-05, "INCLINATION": 0.0417, "RA_OF_ASC_NODE": 95.2831, "ARG_OF_PERICENTER": 124.0894, "MEAN_ANOMALY": 318.1615, "EPHEMERIS_TYPE": 0, "CLASSIFICATION_TYPE": "U", "NORAD_CAT_ID": 38867, "ELEMENT_SET_NO": 999, "REV_AT_EPOCH": 4812, "BSTAR": 0, "MEAN_MOTION_DOT": -2.61e-06, "MEAN_MOTION_DDOT": 0}, "tle": {"line1": "1 38867U 12057A   25350.40336762 -.00000261  00000+0  00000+0 0  9991", "line2": "2 38867   0.0417  95.2831 0000412 124.0894 318.1615  1.00276027 48124"}}, "geometry": {"type": "Point", "coordinates": [168.34834752622075, 0.029321707600186084]}}, {"type": "Feature", "properties": {"norad_id": 39360, "name": "FM-6", "group": "intelsat", "lat": 0.017049979841567118, "lon": 105.1178659714252, "alt_km": 35783.03291324861, "timestamp": "2025-12-17T09:00:16.812615+00:00", "meta": {"OBJECT_NAME": "FM-6", "OBJECT_ID": "2013-058A", "EPOCH": "2025-12-16T16:13:44.564736", "MEAN_MOTION": 1.00268686, "ECCENTRICITY": 0.00029718, "INCLINATION": 0.0086, "RA_OF_ASC_NODE": 55.4244, "ARG_OF_PERICENTER": 121.4304, "MEAN_ANOMALY": 35.9915, "EPHEMERIS_TYPE": 0, "CLASSIFICATION_TYPE": "U", "NORAD_CAT_ID": 39360, "ELEMENT_SET_NO": 999, "REV_AT_EPOCH": 4424, "BSTAR": 0, "MEAN_MOTION_DOT": 7e-08, "MEAN_MOTION_DDOT": 0}, "tle": {"line1": "1 39360U 13058A   25350.67621024  .00000007  00000+0  00000+0 0  9996", "line2": "2 39360   0.0086  55.4244 0002971 121.4304  35.9915  1.00268686 44248"}}, "geometry": {"type": "Point", "coordinates": [105.1178659714252, 0.017049979841567118]}}, {"type": "Feature", "properties": {"norad_id": 40271, "name": "INTELSAT 30 (IS-30)", "group": "intelsat", "lat": 0.029265849043717995, "lon": 126.26995383075786, "alt_km": 35781.33061495935, "timestamp": "2025-12-17T09:00:16.812627+00:00", "meta": {"OBJECT_NAME": "INTELSAT 30 (IS-30)", "OBJECT_ID": "2014-062A", "EPOCH": "2025-12-16T14:36:52.612992", "MEAN_MOTION": 1.00271, "ECCENTRICITY": 0.00015819, "INCLINATION": 0.0138, "RA_OF_ASC_NODE": 18.7228, "ARG_OF_PERICENTER": 65.798, "MEAN_ANOMALY": 125.1451, "EPHEMERIS_TYPE": 0, "CLASSIFICATION_TYPE": "U", "NORAD_CAT_ID": 40271, "ELEMENT_SET_NO": 999, "REV_AT_EPOCH": 496, "BSTAR": 0, "MEAN_MOTION_DOT": -1.27e-06, "MEAN_MOTION_DDOT": 0}, "tle": {"line1": "1 40271U 14062A   25350.60894228 -.00000127  00000+0  00000+0 0  9990", "line2": "2 40271   0.0138  18.7228 0001581  65.7980 125.1451  1.00271000  4965"}}, "geometry": {"type": "Point", "coordinates": [126.26995383075786, 0.029265849043717995]}}, {"type": "Feature", "properties": {"norad_id": 40333, "name": "DIRECTV 14", "group": "intelsat", "lat": 0.02012435528584516, "lon": 122.0899551357995, "alt_km": 35784.411134707676, "timestamp": "2025-12-17T09:00:16.812639+00:00", "meta": {"OBJECT_NAME": "DIRECTV 14", "OBJECT_ID": "2014-078B", "EPOCH": "2025-12-16T14:35:52.709280", "MEAN_MOTION": 1.002726, "ECCENTRICITY": 4.026e-05, "INCLINATION": 0.0022, "RA_OF_ASC_NODE": 13.9355, "ARG_OF_PERICENTER": 138.5188, "MEAN_ANOMALY": 52.7913, "EPHEMERIS_TYPE": 0, "CLASSIFICATION_TYPE": "U", "NORAD_CAT_ID": 40333, "ELEMENT_SET_NO": 999, "REV_AT_EPOCH": 4021, "BSTAR": 0, "MEAN_MOTION_DOT": -1.02e-06, "MEAN_MOTION_DDOT": 0}, "tle": {"line1": "1 40333U 14078B   25350.60824895 -.00000102  00000+0  00000+0 0  9992", "line2": "2 40333   0.0022  13.9355 0000402 138.5188  52.7913  1.00272600 40217"}}, "geometry": {"type": "Point", "coordinates": [122.0899551357995, 0.02012435528584516]}}, {"type": "Feature", "properties": {"norad_id": 40663, "name": "DIRECTV 15", "group": "intelsat", "lat": 0.035851578241908814, "lon": 118.43105440389175, "alt_km": 35786.466103736035, "timestamp": "2025-12-17T09:00:16.812650+00:00", "meta": {"OBJECT_NAME": "DIRECTV 15", "OBJECT_ID": "2015-026A", "EPOCH": "2025-12-16T14:34:45.316416", "MEAN_MOTION": 1.0026971, "ECCENTRICITY": 2.235e-05, "INCLINATION": 0.0412, "RA_OF_ASC_NODE": 83.857, "ARG_OF_PERICENTER": 316.6385, "MEAN_ANOMALY": 160.8127, "EPHEMERIS_TYPE": 0, "CLASSIFICATION_TYPE": "U", "NORAD_CAT_ID": 40663, "ELEMENT_SET_NO": 999, "REV_AT_EPOCH": 3863, "BSTAR": 0, "MEAN_MOTION_DOT": -7.8e-07, "MEAN_MOTION_DDOT": 0}, "tle": {"line1": "1 40663U 15026A   25350.60746894 -.00000078  00000+0  00000+0 0  9996", "line2": "2 40663   0.0412  83.8570 0000223 316.6385 160.8127  1.00269710 38639"}}, "geometry": {"type": "Point", "coordinates": [118.43105440389175, 0.035851578241908814]}}]}